{
  "norad_id": 58923,
  "name": "2024-024G",
  "history": [
    {
      "epoch": "2026-03-27T18:05:24.067392Z",
      "apogee_km": 297.12115561398423,
      "perigee_km": 293.0371473292844,
      "latitude_deg": 2.578250155523149e-05,
      "longitude_deg": 84.61769496644719,
      "height_km": 297.4050781857662,
      "semi_major_axis_km": 6673.2161514716345,
      "eccentricity": 0.000306,
      "inclination_deg": 97.3211,
      "raan_deg": 181.152,
      "arg_perigee_deg": 295.1552,
      "mean_anomaly_deg": 64.9405,
      "mean_motion_rev_day": 15.92575292
    }
  ]
}